{
    "links": {
        "self": "http://www.neowsapp.com/rest/v1/neo/3311959?api_key=iIulBulltgU6a56xZRHN4H3l9WmuAYTsLGpBGhQ2"
    },
    "id": "3311959",
    "neo_reference_id": "3311959",
    "name": "(2006 AG4)",
    "designation": "2006 AG4",
    "nasa_jpl_url": "http://ssd.jpl.nasa.gov/sbdb.cgi?sstr=3311959",
    "absolute_magnitude_h": 23.1,
    "estimated_diameter": {
        "kilometers": {
            "estimated_diameter_min": 0.063760979,
            "estimated_diameter_max": 0.1425738833
        },
        "meters": {
            "estimated_diameter_min": 63.7609789875,
            "estimated_diameter_max": 142.5738833281
        },
        "miles": {
            "estimated_diameter_min": 0.0396192233,
            "estimated_diameter_max": 0.0885912765
        },
        "feet": {
            "estimated_diameter_min": 209.1895703015,
            "estimated_diameter_max": 467.7620993781
        }
    },
    "is_potentially_hazardous_asteroid": false,
    "close_approach_data": [
        {
            "close_approach_date": "2005-12-20",
            "close_approach_date_full": "2005-Dec-20 15:34",
            "epoch_date_close_approach": 1135092840000,
            "relative_velocity": {
                "kilometers_per_second": "4.6511659232",
                "kilometers_per_hour": "16744.197323667",
                "miles_per_hour": "10404.1930536974"
            },
            "miss_distance": {
                "astronomical": "0.22825217",
                "lunar": "88.79009413",
                "kilometers": "34146038.4548779",
                "miles": "21217364.43359902"
            },
            "orbiting_body": "Earth"
        }
    ],
    "orbital_data": {
        "orbit_id": "9",
        "orbit_determination_date": "2017-04-06 09:09:27",
        "first_observation_date": "2006-01-07",
        "last_observation_date": "2006-02-06",
        "data_arc_in_days": 30,
        "observations_used": 27,
        "orbit_uncertainty": "8",
        "minimum_orbit_intersection": ".210814",
        "jupiter_tisserand_invariant": "3.227",
        "epoch_osculation": "2453747.5",
        "eccentricity": ".531016517867433",
        "semi_major_axis": "2.540424026886986",
        "inclination": "5.584723774659763",
        "ascending_node_longitude": "107.8412215451504",
        "orbital_period": "1478.964481583486",
        "perihelion_distance": "1.191416906222697",
        "perihelion_argument": "338.494925062501",
        "aphelion_distance": "3.889431147551276",
        "perihelion_time": "2453717.871876051800",
        "mean_anomaly": "7.211886934520618",
        "mean_motion": ".243413553525341",
        "equinox": "J2000",
        "orbit_class": {
            "orbit_class_type": "AMO",
            "orbit_class_description": "Near-Earth asteroid orbits similar to that of 1221 Amor",
            "orbit_class_range": "1.017 AU < q (perihelion) < 1.3 AU"
        }
    },
    "is_sentry_object": false
}